STARLINK-36913          
1 68031U 26040S   26066.25001157 -.00759942  22579-3 -76437-3 0  9997
2 68031  97.2824  14.1865 0000900 113.4307 316.8236 16.11077186  2037
STARLINK-36935          
1 68032U 26040T   26066.25001157 -.00715335  20399-3 -68269-3 0  9998
2 68032  97.2817  14.1907 0001026 115.1155 325.0761 16.11863473  2135
STARLINK-36947          
1 68033U 26040U   26066.25001157 -.00750295  22077-3 -75019-3 0  9999
2 68033  97.2823  14.1870 0000881 107.9870 323.4996 16.11166158  2030
STARLINK-36939          
1 68034U 26040V   26066.25001157 -.00728303  21012-3 -70793-3 0  9997
2 68034  97.2823  14.1893 0000928 110.5702 326.3850 16.11589727  2034
STARLINK-36943          
1 68035U 26040W   26066.25001157 -.00697708  19573-3 -64984-3 0  9996
2 68035  97.2814  14.1945 0000939 112.1852 334.9817 16.12225957  2085
STARLINK-36906          
1 68036U 26040X   26066.25001157 -.00726860  20907-3 -71117-3 0  9998
2 68036  97.2821  14.1888 0000995 112.4953 323.2062 16.11490775  2036
STARLINK-36388          
1 68037U 26040Y   26066.25001157 -.00717735  20491-3 -69081-3 0  9995
2 68037  97.2820  14.1901 0000929 101.6398 337.0545 16.11736717  1983
STARLINK-36895          
1 68038U 26040Z   26066.25001157 -.00749695  22114-3 -73801-3 0  9995
2 68038  97.2819  14.1881 0000986 113.9363 320.3962 16.11401677  2039
STARLINK-36373          
1 68039U 26040AA  26066.25001157 -.00633459  16117-3 -63339-3 0  9997
2 68039  97.2820  14.1879 0001256 105.1956 327.6709 16.11148264  1983
STARLINK-36711          
1 68040U 26041A   26066.25001157 -.01490745  67772-3 -30575-2 0  9998
2 68040  53.1599  74.7655 0000698  76.8549  40.7631 15.98751875  1983
STARLINK-36825          
1 68041U 26041B   26066.25001157 -.01481078  67146-3 -29954-2 0  9992
2 68041  53.1597  74.7596 0000716  72.8117  47.4459 15.98998885  1980
STARLINK-36925          
1 68042U 26041C   26066.25001157 -.01485935  67466-3 -30251-2 0  9996
2 68042  53.1598  74.7625 0000669  74.3712  44.6461 15.98882573  1988
STARLINK-36902          
1 68043U 26041D   26066.25001157 -.01461459  65596-3 -29385-2 0  9990
2 68043  53.1600  74.7573 0000754  74.1986  47.1719 15.99098838  1989
STARLINK-36966          
1 68044U 26041E   26066.25001157 -.01456094  65331-3 -28863-2 0  9997
2 68044  53.1598  74.7518 0000744  64.5035  59.5353 15.99349859  1985
STARLINK-36864          
1 68045U 26041F   26066.25001157 -.01466775  66136-3 -29252-2 0  9992
2 68045  53.1598  74.7544 0000693  64.2964  58.5938 15.99244229  1989
STARLINK-36321          
1 68046U 26041G   26066.25001157 -.01463203  66096-3 -28594-2 0  9999
2 68046  53.1599  74.7463 0000823  66.0127  60.7211 15.99601622  1980
